[
  {
    "OBJECT_NAME": "COLIBRI-S (RS67S)",
    "OBJECT_ID": "2024-199M",
    "EPOCH": "2025-04-16T21:50:05.938080",
    "MEAN_MOTION": 15.30960311,
    "ECCENTRICITY": 0.0013024,
    "INCLINATION": 97.3646,
    "RA_OF_ASC_NODE": 335.9246,
    "ARG_OF_PERICENTER": 23.4242,
    "MEAN_ANOMALY": 336.759,
    "EPHEMERIS_TYPE": 0,
    "CLASSIFICATION_TYPE": "U",
    "NORAD_CAT_ID": 61746,
    "ELEMENT_SET_NO": 999,
    "REV_AT_EPOCH": 7187,
    "BSTAR": 0.0019309,
    "MEAN_MOTION_DOT": 0.00058206,
    "MEAN_MOTION_DDOT": 0
  },
  {
    "OBJECT_NAME": "HORS 3 (RS81S)",
    "OBJECT_ID": "2024-199U",
    "EPOCH": "2025-04-16T21:02:46.831488",
    "MEAN_MOTION": 15.31915466,
    "ECCENTRICITY": 0.0011657,
    "INCLINATION": 97.3614,
    "RA_OF_ASC_NODE": 335.9089,
    "ARG_OF_PERICENTER": 31.4561,
    "MEAN_ANOMALY": 328.7375,
    "EPHEMERIS_TYPE": 0,
    "CLASSIFICATION_TYPE": "U",
    "NORAD_CAT_ID": 61753,
    "ELEMENT_SET_NO": 999,
    "REV_AT_EPOCH": 7187,
    "BSTAR": 0.0020494,
    "MEAN_MOTION_DOT": 0.00063657,
    "MEAN_MOTION_DDOT": 0
  },
  {
    "OBJECT_NAME": "HORS 4 (RS82S)",
    "OBJECT_ID": "2024-199V",
    "EPOCH": "2025-04-16T20:08:35.333376",
    "MEAN_MOTION": 15.32562838,
    "ECCENTRICITY": 0.0011653,
    "INCLINATION": 97.3611,
    "RA_OF_ASC_NODE": 335.9537,
    "ARG_OF_PERICENTER": 32.0437,
    "MEAN_ANOMALY": 328.1511,
    "EPHEMERIS_TYPE": 0,
    "CLASSIFICATION_TYPE": "U",
    "NORAD_CAT_ID": 61754,
    "ELEMENT_SET_NO": 999,
    "REV_AT_EPOCH": 7187,
    "BSTAR": 0.0023136,
    "MEAN_MOTION_DOT": 0.00073434,
    "MEAN_MOTION_DDOT": 0
  },
  {
    "OBJECT_NAME": "HORIZON (RS59S)",
    "OBJECT_ID": "2024-199Y",
    "EPOCH": "2025-04-16T22:13:16.179744",
    "MEAN_MOTION": 15.34914863,
    "ECCENTRICITY": 0.0011703,
    "INCLINATION": 97.3637,
    "RA_OF_ASC_NODE": 336.3488,
    "ARG_OF_PERICENTER": 21.3477,
    "MEAN_ANOMALY": 338.8252,
    "EPHEMERIS_TYPE": 0,
    "CLASSIFICATION_TYPE": "U",
    "NORAD_CAT_ID": 61757,
    "ELEMENT_SET_NO": 999,
    "REV_AT_EPOCH": 7190,
    "BSTAR": 0.0028552,
    "MEAN_MOTION_DOT": 0.00097927,
    "MEAN_MOTION_DDOT": 0
  },
  {
    "OBJECT_NAME": "SIT-2086",
    "OBJECT_ID": "2024-199AF",
    "EPOCH": "2025-04-16T21:30:14.407776",
    "MEAN_MOTION": 15.33556124,
    "ECCENTRICITY": 0.001013,
    "INCLINATION": 97.3618,
    "RA_OF_ASC_NODE": 336.188,
    "ARG_OF_PERICENTER": 33.7059,
    "MEAN_ANOMALY": 326.4825,
    "EPHEMERIS_TYPE": 0,
    "CLASSIFICATION_TYPE": "U",
    "NORAD_CAT_ID": 61764,
    "ELEMENT_SET_NO": 999,
    "REV_AT_EPOCH": 6873,
    "BSTAR": 0.0025302,
    "MEAN_MOTION_DOT": 0.00082919,
    "MEAN_MOTION_DDOT": 0
  },
  {
    "OBJECT_NAME": "MORDOVIA-IOT (RS50S)",
    "OBJECT_ID": "2024-199AG",
    "EPOCH": "2025-04-16T20:07:37.919712",
    "MEAN_MOTION": 15.37787546,
    "ECCENTRICITY": 0.0010855,
    "INCLINATION": 97.3623,
    "RA_OF_ASC_NODE": 336.6086,
    "ARG_OF_PERICENTER": 18.8811,
    "MEAN_ANOMALY": 341.2834,
    "EPHEMERIS_TYPE": 0,
    "CLASSIFICATION_TYPE": "U",
    "NORAD_CAT_ID": 61765,
    "ELEMENT_SET_NO": 999,
    "REV_AT_EPOCH": 6876,
    "BSTAR": 0.0030044,
    "MEAN_MOTION_DOT": 0.0011317,
    "MEAN_MOTION_DDOT": 0
  },
  {
    "OBJECT_NAME": "RUZAEVKA 390 (RS44S)",
    "OBJECT_ID": "2024-199AH",
    "EPOCH": "2025-04-16T21:02:47.146848",
    "MEAN_MOTION": 15.36847964,
    "ECCENTRICITY": 0.001094,
    "INCLINATION": 97.3622,
    "RA_OF_ASC_NODE": 336.5537,
    "ARG_OF_PERICENTER": 18.7438,
    "MEAN_ANOMALY": 341.4207,
    "EPHEMERIS_TYPE": 0,
    "CLASSIFICATION_TYPE": "U",
    "NORAD_CAT_ID": 61766,
    "ELEMENT_SET_NO": 999,
    "REV_AT_EPOCH": 6876,
    "BSTAR": 0.0028499,
    "MEAN_MOTION_DOT": 0.00104024,
    "MEAN_MOTION_DDOT": 0
  },
  {
    "OBJECT_NAME": "HYPERVIEW 1G (RS66S)",
    "OBJECT_ID": "2024-199AP",
    "EPOCH": "2025-04-16T22:29:45.723264",
    "MEAN_MOTION": 15.32936059,
    "ECCENTRICITY": 0.0014985,
    "INCLINATION": 97.3611,
    "RA_OF_ASC_NODE": 335.9748,
    "ARG_OF_PERICENTER": 32.7639,
    "MEAN_ANOMALY": 327.4529,
    "EPHEMERIS_TYPE": 0,
    "CLASSIFICATION_TYPE": "U",
    "NORAD_CAT_ID": 61772,
    "ELEMENT_SET_NO": 999,
    "REV_AT_EPOCH": 6873,
    "BSTAR": 0.0026354,
    "MEAN_MOTION_DOT": 0.00084883,
    "MEAN_MOTION_DDOT": 0
  },
  {
    "OBJECT_NAME": "ALTAIR (RS65S)",
    "OBJECT_ID": "2024-199AW",
    "EPOCH": "2025-04-16T22:07:23.784384",
    "MEAN_MOTION": 15.27858234,
    "ECCENTRICITY": 0.0016743,
    "INCLINATION": 97.363,
    "RA_OF_ASC_NODE": 335.4149,
    "ARG_OF_PERICENTER": 33.6817,
    "MEAN_ANOMALY": 326.5483,
    "EPHEMERIS_TYPE": 0,
    "CLASSIFICATION_TYPE": "U",
    "NORAD_CAT_ID": 61779,
    "ELEMENT_SET_NO": 999,
    "REV_AT_EPOCH": 7184,
    "BSTAR": 0.0012341,
    "MEAN_MOTION_DOT": 0.00033743,
    "MEAN_MOTION_DDOT": 0
  },
  {
    "OBJECT_NAME": "ASRTU-1 (AO-123)",
    "OBJECT_ID": "2024-199AY",
    "EPOCH": "2025-04-16T21:06:21.369600",
    "MEAN_MOTION": 15.27476024,
    "ECCENTRICITY": 0.0017005,
    "INCLINATION": 97.3622,
    "RA_OF_ASC_NODE": 335.3115,
    "ARG_OF_PERICENTER": 34.0381,
    "MEAN_ANOMALY": 326.1946,
    "EPHEMERIS_TYPE": 0,
    "CLASSIFICATION_TYPE": "U",
    "NORAD_CAT_ID": 61781,
    "ELEMENT_SET_NO": 999,
    "REV_AT_EPOCH": 6868,
    "BSTAR": 0.0010076,
    "MEAN_MOTION_DOT": 0.00027198,
    "MEAN_MOTION_DDOT": 0
  },
  {
    "OBJECT_NAME": "TUSUR GO (RS78S)",
    "OBJECT_ID": "2024-199AZ",
    "EPOCH": "2025-04-16T21:10:20.429760",
    "MEAN_MOTION": 15.33577925,
    "ECCENTRICITY": 0.0015534,
    "INCLINATION": 97.3608,
    "RA_OF_ASC_NODE": 335.8968,
    "ARG_OF_PERICENTER": 32.2609,
    "MEAN_ANOMALY": 327.958,
    "EPHEMERIS_TYPE": 0,
    "CLASSIFICATION_TYPE": "U",
    "NORAD_CAT_ID": 61782,
    "ELEMENT_SET_NO": 999,
    "REV_AT_EPOCH": 6872,
    "BSTAR": 0.0028707,
    "MEAN_MOTION_DOT": 0.00094494,
    "MEAN_MOTION_DDOT": 0
  },
  {
    "OBJECT_NAME": "SAMSAT-IONOSPHERE (RS75S)",
    "OBJECT_ID": "2024-199BB",
    "EPOCH": "2025-04-16T21:35:50.832096",
    "MEAN_MOTION": 15.31334509,
    "ECCENTRICITY": 0.0016217,
    "INCLINATION": 97.362,
    "RA_OF_ASC_NODE": 335.731,
    "ARG_OF_PERICENTER": 32.8539,
    "MEAN_ANOMALY": 327.3707,
    "EPHEMERIS_TYPE": 0,
    "CLASSIFICATION_TYPE": "U",
    "NORAD_CAT_ID": 61784,
    "ELEMENT_SET_NO": 999,
    "REV_AT_EPOCH": 7186,
    "BSTAR": 0.0023549,
    "MEAN_MOTION_DOT": 0.00072064,
    "MEAN_MOTION_DDOT": 0
  },
  {
    "OBJECT_NAME": "RTU MIREA 1 (RS51S)",
    "OBJECT_ID": "2024-199BC",
    "EPOCH": "2025-04-16T21:15:18.022464",
    "MEAN_MOTION": 15.31663975,
    "ECCENTRICITY": 0.0015997,
    "INCLINATION": 97.3618,
    "RA_OF_ASC_NODE": 335.749,
    "ARG_OF_PERICENTER": 32.4897,
    "MEAN_ANOMALY": 327.7326,
    "EPHEMERIS_TYPE": 0,
    "CLASSIFICATION_TYPE": "U",
    "NORAD_CAT_ID": 61785,
    "ELEMENT_SET_NO": 999,
    "REV_AT_EPOCH": 6871,
    "BSTAR": 0.002467,
    "MEAN_MOTION_DOT": 0.00076309,
    "MEAN_MOTION_DDOT": 0
  },
  {
    "OBJECT_NAME": "HADES-R",
    "OBJECT_ID": "2025-009CK",
    "EPOCH": "2025-04-16T16:25:26.631264",
    "MEAN_MOTION": 15.24716685,
    "ECCENTRICITY": 0.0002744,
    "INCLINATION": 97.411,
    "RA_OF_ASC_NODE": 187.8599,
    "ARG_OF_PERICENTER": 240.9609,
    "MEAN_ANOMALY": 119.1354,
    "EPHEMERIS_TYPE": 0,
    "CLASSIFICATION_TYPE": "U",
    "NORAD_CAT_ID": 62690,
    "ELEMENT_SET_NO": 999,
    "REV_AT_EPOCH": 1392,
    "BSTAR": 0.0023266,
    "MEAN_MOTION_DOT": 0.00057896,
    "MEAN_MOTION_DDOT": 0
  }
]
