COLIBRI-S (RS67S)       
1 61746U 24199M   25106.90979095  .00058206  00000+0  19309-2 0  9995
2 61746  97.3646 335.9246 0013024  23.4242 336.7590 15.30960311 71875
HORS 3 (RS81S)          
1 61753U 24199U   25106.87693092  .00063657  00000+0  20494-2 0  9992
2 61753  97.3614 335.9089 0011657  31.4561 328.7375 15.31915466 71870
HORS 4 (RS82S)          
1 61754U 24199V   25106.83929784  .00073434  00000+0  23136-2 0  9999
2 61754  97.3611 335.9537 0011653  32.0437 328.1511 15.32562838 71879
HORIZON (RS59S)         
1 61757U 24199Y   25106.92588171  .00097927  00000+0  28552-2 0  9993
2 61757  97.3637 336.3488 0011703  21.3477 338.8252 15.34914863 71906
SIT-2086                
1 61764U 24199AF  25106.89600009  .00082919  00000+0  25302-2 0  9997
2 61764  97.3618 336.1880 0010130  33.7059 326.4825 15.33556124 68730
MORDOVIA-IOT (RS50S)    
1 61765U 24199AG  25106.83863333  .00113170  00000+0  30044-2 0  9996
2 61765  97.3623 336.6086 0010855  18.8811 341.2834 15.37787546 68760
RUZAEVKA 390 (RS44S)    
1 61766U 24199AH  25106.87693457  .00104024  00000+0  28499-2 0  9998
2 61766  97.3622 336.5537 0010940  18.7438 341.4207 15.36847964 68765
HYPERVIEW 1G (RS66S)    
1 61772U 24199AP  25106.93733476  .00084883  00000+0  26354-2 0  9996
2 61772  97.3611 335.9748 0014985  32.7639 327.4529 15.32936059 68737
ALTAIR (RS65S)          
1 61779U 24199AW  25106.92180306  .00033743  00000+0  12341-2 0  9990
2 61779  97.3630 335.4149 0016743  33.6817 326.5483 15.27858234 71844
ASRTU-1 (AO-123)        
1 61781U 24199AY  25106.87941400  .00027198  00000+0  10076-2 0  9997
2 61781  97.3622 335.3115 0017005  34.0381 326.1946 15.27476024 68684
TUSUR GO (RS78S)        
1 61782U 24199AZ  25106.88218090  .00094494  00000+0  28707-2 0  9994
2 61782  97.3608 335.8968 0015534  32.2609 327.9580 15.33577925 68725
SAMSAT-IONOSPHERE (RS7*)
1 61784U 24199BB  25106.89989389  .00072064  00000+0  23549-2 0  9991
2 61784  97.3620 335.7310 0016217  32.8539 327.3707 15.31334509 71869
RTU MIREA 1 (RS51S)     
1 61785U 24199BC  25106.88562526  .00076309  00000+0  24670-2 0  9993
2 61785  97.3618 335.7490 0015997  32.4897 327.7326 15.31663975 68716
HADES-R                 
1 62690U 25009CK  25106.68433601  .00057896  00000+0  23266-2 0  9999
2 62690  97.4110 187.8599 0002744 240.9609 119.1354 15.24716685 13925
